<?xml version="1.0" encoding="UTF-8"?>
<ndm xmlns:xsi="http://www.w3.org/2001/XMLSchema-instance" xsi:noNamespaceSchemaLocation="https://sanaregistry.org/r/ndmxml_unqualified/ndmxml-2.0.0-master-2.0.xsd">
<omm id="CCSDS_OMM_VERS" version="2.0">
<header><CREATION_DATE/><ORIGINATOR/></header><body><segment><metadata><OBJECT_NAME>KUIPER-00061</OBJECT_NAME><OBJECT_ID>2025-134X</OBJECT_ID><CENTER_NAME>EARTH</CENTER_NAME><REF_FRAME>TEME</REF_FRAME><TIME_SYSTEM>UTC</TIME_SYSTEM><MEAN_ELEMENT_THEORY>SGP4</MEAN_ELEMENT_THEORY></metadata><data><meanElements><EPOCH>2025-12-12T01:05:42.138240</EPOCH><MEAN_MOTION>14.80282977</MEAN_MOTION><ECCENTRICITY>.0005181</ECCENTRICITY><INCLINATION>51.9012</INCLINATION><RA_OF_ASC_NODE>255.6067</RA_OF_ASC_NODE><ARG_OF_PERICENTER>354.0592</ARG_OF_PERICENTER><MEAN_ANOMALY>6.0308</MEAN_ANOMALY></meanElements><tleParameters><EPHEMERIS_TYPE>0</EPHEMERIS_TYPE><CLASSIFICATION_TYPE>U</CLASSIFICATION_TYPE><NORAD_CAT_ID>64521</NORAD_CAT_ID><ELEMENT_SET_NO>999</ELEMENT_SET_NO><REV_AT_EPOCH>2715</REV_AT_EPOCH><BSTAR>.74718E-3</BSTAR><MEAN_MOTION_DOT>.5527E-4</MEAN_MOTION_DOT><MEAN_MOTION_DDOT>0</MEAN_MOTION_DDOT></tleParameters></data></segment></body></omm>
<omm id="CCSDS_OMM_VERS" version="2.0">
<header><CREATION_DATE/><ORIGINATOR/></header><body><segment><metadata><OBJECT_NAME>KUIPER-00062</OBJECT_NAME><OBJECT_ID>2025-134Y</OBJECT_ID><CENTER_NAME>EARTH</CENTER_NAME><REF_FRAME>TEME</REF_FRAME><TIME_SYSTEM>UTC</TIME_SYSTEM><MEAN_ELEMENT_THEORY>SGP4</MEAN_ELEMENT_THEORY></metadata><data><meanElements><EPOCH>2025-12-12T03:28:25.071168</EPOCH><MEAN_MOTION>14.85060055</MEAN_MOTION><ECCENTRICITY>.0006951</ECCENTRICITY><INCLINATION>51.8967</INCLINATION><RA_OF_ASC_NODE>260.1948</RA_OF_ASC_NODE><ARG_OF_PERICENTER>11.7834</ARG_OF_PERICENTER><MEAN_ANOMALY>348.3292</MEAN_ANOMALY></meanElements><tleParameters><EPHEMERIS_TYPE>0</EPHEMERIS_TYPE><CLASSIFICATION_TYPE>U</CLASSIFICATION_TYPE><NORAD_CAT_ID>64522</NORAD_CAT_ID><ELEMENT_SET_NO>999</ELEMENT_SET_NO><REV_AT_EPOCH>2711</REV_AT_EPOCH><BSTAR>.88166E-3</BSTAR><MEAN_MOTION_DOT>.7382E-4</MEAN_MOTION_DOT><MEAN_MOTION_DDOT>0</MEAN_MOTION_DDOT></tleParameters></data></segment></body></omm>
<omm id="CCSDS_OMM_VERS" version="2.0">
<header><CREATION_DATE/><ORIGINATOR/></header><body><segment><metadata><OBJECT_NAME>KUIPER-00063</OBJECT_NAME><OBJECT_ID>2025-134Z</OBJECT_ID><CENTER_NAME>EARTH</CENTER_NAME><REF_FRAME>TEME</REF_FRAME><TIME_SYSTEM>UTC</TIME_SYSTEM><MEAN_ELEMENT_THEORY>SGP4</MEAN_ELEMENT_THEORY></metadata><data><meanElements><EPOCH>2025-12-12T03:53:37.430592</EPOCH><MEAN_MOTION>14.80438417</MEAN_MOTION><ECCENTRICITY>.0003141</ECCENTRICITY><INCLINATION>51.9014</INCLINATION><RA_OF_ASC_NODE>265.0108</RA_OF_ASC_NODE><ARG_OF_PERICENTER>332.3517</ARG_OF_PERICENTER><MEAN_ANOMALY>27.7278</MEAN_ANOMALY></meanElements><tleParameters><EPHEMERIS_TYPE>0</EPHEMERIS_TYPE><CLASSIFICATION_TYPE>U</CLASSIFICATION_TYPE><NORAD_CAT_ID>64523</NORAD_CAT_ID><ELEMENT_SET_NO>999</ELEMENT_SET_NO><REV_AT_EPOCH>2704</REV_AT_EPOCH><BSTAR>.12558E-2</BSTAR><MEAN_MOTION_DOT>.9481E-4</MEAN_MOTION_DOT><MEAN_MOTION_DDOT>0</MEAN_MOTION_DDOT></tleParameters></data></segment></body></omm>
<omm id="CCSDS_OMM_VERS" version="2.0">
<header><CREATION_DATE/><ORIGINATOR/></header><body><segment><metadata><OBJECT_NAME>KUIPER-00064</OBJECT_NAME><OBJECT_ID>2025-134AA</OBJECT_ID><CENTER_NAME>EARTH</CENTER_NAME><REF_FRAME>TEME</REF_FRAME><TIME_SYSTEM>UTC</TIME_SYSTEM><MEAN_ELEMENT_THEORY>SGP4</MEAN_ELEMENT_THEORY></metadata><data><meanElements><EPOCH>2025-12-11T23:22:08.277024</EPOCH><MEAN_MOTION>14.79954347</MEAN_MOTION><ECCENTRICITY>.0008237</ECCENTRICITY><INCLINATION>51.9027</INCLINATION><RA_OF_ASC_NODE>263.3793</RA_OF_ASC_NODE><ARG_OF_PERICENTER>64.8047</ARG_OF_PERICENTER><MEAN_ANOMALY>295.3769</MEAN_ANOMALY></meanElements><tleParameters><EPHEMERIS_TYPE>0</EPHEMERIS_TYPE><CLASSIFICATION_TYPE>U</CLASSIFICATION_TYPE><NORAD_CAT_ID>64524</NORAD_CAT_ID><ELEMENT_SET_NO>999</ELEMENT_SET_NO><REV_AT_EPOCH>2705</REV_AT_EPOCH><BSTAR>.96192E-3</BSTAR><MEAN_MOTION_DOT>.7125E-4</MEAN_MOTION_DOT><MEAN_MOTION_DDOT>0</MEAN_MOTION_DDOT></tleParameters></data></segment></body></omm>
<omm id="CCSDS_OMM_VERS" version="2.0">
<header><CREATION_DATE/><ORIGINATOR/></header><body><segment><metadata><OBJECT_NAME>KUIPER-00065</OBJECT_NAME><OBJECT_ID>2025-134AB</OBJECT_ID><CENTER_NAME>EARTH</CENTER_NAME><REF_FRAME>TEME</REF_FRAME><TIME_SYSTEM>UTC</TIME_SYSTEM><MEAN_ELEMENT_THEORY>SGP4</MEAN_ELEMENT_THEORY></metadata><data><meanElements><EPOCH>2025-12-11T02:31:43.214592</EPOCH><MEAN_MOTION>14.77142643</MEAN_MOTION><ECCENTRICITY>.00097877</ECCENTRICITY><INCLINATION>51.9019</INCLINATION><RA_OF_ASC_NODE>272.5260</RA_OF_ASC_NODE><ARG_OF_PERICENTER>348.2159</ARG_OF_PERICENTER><MEAN_ANOMALY>11.8572</MEAN_ANOMALY></meanElements><tleParameters><EPHEMERIS_TYPE>0</EPHEMERIS_TYPE><CLASSIFICATION_TYPE>U</CLASSIFICATION_TYPE><NORAD_CAT_ID>64525</NORAD_CAT_ID><ELEMENT_SET_NO>999</ELEMENT_SET_NO><REV_AT_EPOCH>2683</REV_AT_EPOCH><BSTAR>.14259096E-1</BSTAR><MEAN_MOTION_DOT>.103188E-2</MEAN_MOTION_DOT><MEAN_MOTION_DDOT>0</MEAN_MOTION_DDOT></tleParameters></data></segment></body></omm>
<omm id="CCSDS_OMM_VERS" version="2.0">
<header><CREATION_DATE/><ORIGINATOR/></header><body><segment><metadata><OBJECT_NAME>KUIPER-00066</OBJECT_NAME><OBJECT_ID>2025-134AC</OBJECT_ID><CENTER_NAME>EARTH</CENTER_NAME><REF_FRAME>TEME</REF_FRAME><TIME_SYSTEM>UTC</TIME_SYSTEM><MEAN_ELEMENT_THEORY>SGP4</MEAN_ELEMENT_THEORY></metadata><data><meanElements><EPOCH>2025-12-11T21:58:19.481664</EPOCH><MEAN_MOTION>15.20846314</MEAN_MOTION><ECCENTRICITY>.00009</ECCENTRICITY><INCLINATION>51.8879</INCLINATION><RA_OF_ASC_NODE>238.5514</RA_OF_ASC_NODE><ARG_OF_PERICENTER>96.3507</ARG_OF_PERICENTER><MEAN_ANOMALY>263.7576</MEAN_ANOMALY></meanElements><tleParameters><EPHEMERIS_TYPE>0</EPHEMERIS_TYPE><CLASSIFICATION_TYPE>U</CLASSIFICATION_TYPE><NORAD_CAT_ID>64526</NORAD_CAT_ID><ELEMENT_SET_NO>999</ELEMENT_SET_NO><REV_AT_EPOCH>2739</REV_AT_EPOCH><BSTAR>.11613E-2</BSTAR><MEAN_MOTION_DOT>.25746E-3</MEAN_MOTION_DOT><MEAN_MOTION_DDOT>0</MEAN_MOTION_DDOT></tleParameters></data></segment></body></omm>
<omm id="CCSDS_OMM_VERS" version="2.0">
<header><CREATION_DATE/><ORIGINATOR/></header><body><segment><metadata><OBJECT_NAME>KUIPER-00069</OBJECT_NAME><OBJECT_ID>2025-151A</OBJECT_ID><CENTER_NAME>EARTH</CENTER_NAME><REF_FRAME>TEME</REF_FRAME><TIME_SYSTEM>UTC</TIME_SYSTEM><MEAN_ELEMENT_THEORY>SGP4</MEAN_ELEMENT_THEORY></metadata><data><meanElements><EPOCH>2025-12-12T03:03:32.448960</EPOCH><MEAN_MOTION>14.80051927</MEAN_MOTION><ECCENTRICITY>.0006824</ECCENTRICITY><INCLINATION>51.9027</INCLINATION><RA_OF_ASC_NODE>307.8068</RA_OF_ASC_NODE><ARG_OF_PERICENTER>358.0823</ARG_OF_PERICENTER><MEAN_ANOMALY>2.0112</MEAN_ANOMALY></meanElements><tleParameters><EPHEMERIS_TYPE>0</EPHEMERIS_TYPE><CLASSIFICATION_TYPE>U</CLASSIFICATION_TYPE><NORAD_CAT_ID>64816</NORAD_CAT_ID><ELEMENT_SET_NO>999</ELEMENT_SET_NO><REV_AT_EPOCH>2379</REV_AT_EPOCH><BSTAR>.81284E-3</BSTAR><MEAN_MOTION_DOT>.5999E-4</MEAN_MOTION_DOT><MEAN_MOTION_DDOT>0</MEAN_MOTION_DDOT></tleParameters></data></segment></body></omm>
<omm id="CCSDS_OMM_VERS" version="2.0">
<header><CREATION_DATE/><ORIGINATOR/></header><body><segment><metadata><OBJECT_NAME>KUIPER-00070</OBJECT_NAME><OBJECT_ID>2025-151B</OBJECT_ID><CENTER_NAME>EARTH</CENTER_NAME><REF_FRAME>TEME</REF_FRAME><TIME_SYSTEM>UTC</TIME_SYSTEM><MEAN_ELEMENT_THEORY>SGP4</MEAN_ELEMENT_THEORY></metadata><data><meanElements><EPOCH>2025-12-12T03:13:48.222624</EPOCH><MEAN_MOTION>14.79936650</MEAN_MOTION><ECCENTRICITY>.0010425</ECCENTRICITY><INCLINATION>51.9013</INCLINATION><RA_OF_ASC_NODE>332.7332</RA_OF_ASC_NODE><ARG_OF_PERICENTER>324.9782</ARG_OF_PERICENTER><MEAN_ANOMALY>35.0493</MEAN_ANOMALY></meanElements><tleParameters><EPHEMERIS_TYPE>0</EPHEMERIS_TYPE><CLASSIFICATION_TYPE>U</CLASSIFICATION_TYPE><NORAD_CAT_ID>64817</NORAD_CAT_ID><ELEMENT_SET_NO>999</ELEMENT_SET_NO><REV_AT_EPOCH>2345</REV_AT_EPOCH><BSTAR>.42283E-3</BSTAR><MEAN_MOTION_DOT>.3004E-4</MEAN_MOTION_DOT><MEAN_MOTION_DDOT>0</MEAN_MOTION_DDOT></tleParameters></data></segment></body></omm>

</ndm>
