KUIPER-00061            
1 64521U 25134X   25346.04562660  .00005527  00000+0  74718-3 0  9990
2 64521  51.9012 255.6067 0005181 354.0592   6.0308 14.80282977 27152
KUIPER-00062            
1 64522U 25134Y   25346.14473462  .00007382  00000+0  88166-3 0  9996
2 64522  51.8967 260.1948 0006951  11.7834 348.3292 14.85060055 27118
KUIPER-00063            
1 64523U 25134Z   25346.16223878  .00009481  00000+0  12558-2 0  9996
2 64523  51.9014 265.0108 0003141 332.3517  27.7278 14.80438417 27043
KUIPER-00064            
1 64524U 25134AA  25345.97370691  .00007125  00000+0  96192-3 0  9991
2 64524  51.9027 263.3793 0008237  64.8047 295.3769 14.79954347 27057
KUIPER-00065            
1 64525U 25134AB  25345.10536128  .00103188  00000+0  14259-1 0  9994
2 64525  51.9019 272.5260 0009787 348.2159  11.8572 14.77142643 26838
KUIPER-00066            
1 64526U 25134AC  25345.91550326  .00025746  00000+0  11613-2 0  9995
2 64526  51.8879 238.5514 0000900  96.3507 263.7576 15.20846314 27391
KUIPER-00069            
1 64816U 25151A   25346.12745890  .00005999  00000+0  81284-3 0  9992
2 64816  51.9027 307.8068 0006824 358.0823   2.0112 14.80051927 23796
KUIPER-00070            
1 64817U 25151B   25346.13458591  .00003004  00000+0  42283-3 0  9994
2 64817  51.9013 332.7332 0010425 324.9782  35.0493 14.79936650 23455
